{"type": "FeatureCollection", "name": "memphis-public-libraries", "source": "Memphis Public Libraries, data.memphistn.gov", "retrieved": "2026-08-03", "features": [{"type": "Feature", "properties": {"name": "Cherokee Library", "street": "3300 Sharpe Avenue"}, "geometry": {"type": "Point", "coordinates": [-89.952772081966, 35.0868441218588]}}, {"type": "Feature", "properties": {"name": "Gaston Park Library", "street": "1040 S 3rd Street"}, "geometry": {"type": "Point", "coordinates": [-90.0550845166371, 35.1189833556974]}}, {"type": "Feature", "properties": {"name": "North Library", "street": "1192 Vollintine Avenue"}, "geometry": {"type": "Point", "coordinates": [-90.0174770153519, 35.1654373728365]}}, {"type": "Feature", "properties": {"name": "Cossitt Downtown Library (temporarily closed)", "street": "33 S Front Street"}, "geometry": {"type": "Point", "coordinates": [-90.0544528238387, 35.1448511483619]}}, {"type": "Feature", "properties": {"name": "Cordova Library", "street": "8457 Trinity Road"}, "geometry": {"type": "Point", "coordinates": [-89.7809844112016, 35.1424436263723]}}, {"type": "Feature", "properties": {"name": "Hollywood Library", "street": "1530 N Hollywood Street"}, "geometry": {"type": "Point", "coordinates": [-89.9752448071021, 35.1778426202408]}}, {"type": "Feature", "properties": {"name": "Parkway Village Library", "street": "4655 Knight Arnold Road"}, "geometry": {"type": "Point", "coordinates": [-89.9083350310368, 35.0624254850482]}}, {"type": "Feature", "properties": {"name": "Levi Library", "street": "3676 S 3rd Street"}, "geometry": {"type": "Point", "coordinates": [-90.0624416832371, 35.0483659221496]}}, {"type": "Feature", "properties": {"name": "Randolph Library", "street": "3752 Given Avenue"}, "geometry": {"type": "Point", "coordinates": [-89.9354007503443, 35.1560827912878]}}, {"type": "Feature", "properties": {"name": "Raleigh Library", "street": "3157 Powers Road"}, "geometry": {"type": "Point", "coordinates": [-89.9212043798782, 35.212388440774]}}, {"type": "Feature", "properties": {"name": "South Library", "street": "1929 S 3rd Street"}, "geometry": {"type": "Point", "coordinates": [-90.0559910413534, 35.0949420564308]}}, {"type": "Feature", "properties": {"name": "Benjamin L. Hooks Central Library", "street": "3030 Poplar Avenue"}, "geometry": {"type": "Point", "coordinates": [-89.9604772340371, 35.1323867066812]}}, {"type": "Feature", "properties": {"name": "Cornelia Crenshaw Memorial Library", "street": "531 Vance Avenue"}, "geometry": {"type": "Point", "coordinates": [-90.0442742006938, 35.134678604634]}}, {"type": "Feature", "properties": {"name": "Whitehaven Library", "street": "4120 Millbranch Road"}, "geometry": {"type": "Point", "coordinates": [-90.0074864152658, 35.0361269998612]}}, {"type": "Feature", "properties": {"name": "Orange Mound Library", "street": "843 Dallas St."}, "geometry": {"type": "Point", "coordinates": [-89.9755612245708, 35.1095216837787]}}, {"type": "Feature", "properties": {"name": "Frayser Library", "street": "2220 James Rd."}, "geometry": {"type": "Point", "coordinates": [-89.9892367346875, 35.1976653059092]}}, {"type": "Feature", "properties": {"name": "Officer Geoffrey Redd Library", "street": "5094 Poplar Ave."}, "geometry": {"type": "Point", "coordinates": [-89.8922571430527, 35.1116612248857]}}, {"type": "Feature", "properties": {"name": "East Shelby Library", "street": "7200 East Shelby Dr."}, "geometry": {"type": "Point", "coordinates": [-89.8230927135579, 35.0208665497515]}}]}